CCSDS_OMM_VERS = 2.0
CREATION_DATE  = 
ORIGINATOR     = 

OBJECT_NAME    = TWILIGHT AH
OBJECT_ID      = 2026-004AH
CENTER_NAME    = EARTH
REF_FRAME      = TEME
TIME_SYSTEM    = UTC
MEAN_ELEMENT_THEORY = SGP/SGP4

EPOCH          = 2026-02-08T11:52:54.915456
MEAN_MOTION    = 15.18281148
ECCENTRICITY   = .001083
INCLINATION    = 97.4480
RA_OF_ASC_NODE = 40.4246
ARG_OF_PERICENTER = 70.1183
MEAN_ANOMALY   = 290.1217

EPHEMERIS_TYPE = 0
CLASSIFICATION_TYPE = U
NORAD_CAT_ID   = 67394
ELEMENT_SET_NO = 999
REV_AT_EPOCH   = 423
BSTAR          = .4733E-3
MEAN_MOTION_DOT = .9653E-4
MEAN_MOTION_DDOT = 0

CCSDS_OMM_VERS = 2.0
CREATION_DATE  = 
ORIGINATOR     = 

OBJECT_NAME    = TWILIGHT AJ
OBJECT_ID      = 2026-004AJ
CENTER_NAME    = EARTH
REF_FRAME      = TEME
TIME_SYSTEM    = UTC
MEAN_ELEMENT_THEORY = SGP/SGP4

EPOCH          = 2026-02-08T10:58:57.553248
MEAN_MOTION    = 14.87807809
ECCENTRICITY   = .0005203
INCLINATION    = 97.8017
RA_OF_ASC_NODE = 40.1606
ARG_OF_PERICENTER = 176.8027
MEAN_ANOMALY   = 183.3224

EPHEMERIS_TYPE = 0
CLASSIFICATION_TYPE = U
NORAD_CAT_ID   = 67395
ELEMENT_SET_NO = 999
REV_AT_EPOCH   = 413
BSTAR          = .31977E-3
MEAN_MOTION_DOT = .2867E-4
MEAN_MOTION_DDOT = 0

CCSDS_OMM_VERS = 2.0
CREATION_DATE  = 
ORIGINATOR     = 

OBJECT_NAME    = HAWK-13B
OBJECT_ID      = 2026-004AK
CENTER_NAME    = EARTH
REF_FRAME      = TEME
TIME_SYSTEM    = UTC
MEAN_ELEMENT_THEORY = SGP/SGP4

EPOCH          = 2026-02-08T12:03:49.735872
MEAN_MOTION    = 15.17847415
ECCENTRICITY   = .0008726
INCLINATION    = 97.4512
RA_OF_ASC_NODE = 40.4292
ARG_OF_PERICENTER = 70.1306
MEAN_ANOMALY   = 290.0867

EPHEMERIS_TYPE = 0
CLASSIFICATION_TYPE = U
NORAD_CAT_ID   = 67396
ELEMENT_SET_NO = 999
REV_AT_EPOCH   = 423
BSTAR          = .10339E-3
MEAN_MOTION_DOT = .2027E-4
MEAN_MOTION_DDOT = 0

CCSDS_OMM_VERS = 2.0
CREATION_DATE  = 
ORIGINATOR     = 

OBJECT_NAME    = CARBSAR
OBJECT_ID      = 2026-004AL
CENTER_NAME    = EARTH
REF_FRAME      = TEME
TIME_SYSTEM    = UTC
MEAN_ELEMENT_THEORY = SGP/SGP4

EPOCH          = 2026-02-08T12:06:51.136128
MEAN_MOTION    = 15.17888735
ECCENTRICITY   = .000788
INCLINATION    = 97.4534
RA_OF_ASC_NODE = 40.4345
ARG_OF_PERICENTER = 74.4258
MEAN_ANOMALY   = 285.7845

EPHEMERIS_TYPE = 0
CLASSIFICATION_TYPE = U
NORAD_CAT_ID   = 67397
ELEMENT_SET_NO = 999
REV_AT_EPOCH   = 423
BSTAR          = .54506E-3
MEAN_MOTION_DOT = .10996E-3
MEAN_MOTION_DDOT = 0

CCSDS_OMM_VERS = 2.0
CREATION_DATE  = 
ORIGINATOR     = 

OBJECT_NAME    = TWILIGHT AM
OBJECT_ID      = 2026-004AM
CENTER_NAME    = EARTH
REF_FRAME      = TEME
TIME_SYSTEM    = UTC
MEAN_ELEMENT_THEORY = SGP/SGP4

EPOCH          = 2026-02-08T12:01:49.450656
MEAN_MOTION    = 15.17982531
ECCENTRICITY   = .0008811
INCLINATION    = 97.4570
RA_OF_ASC_NODE = 40.4525
ARG_OF_PERICENTER = 80.0901
MEAN_ANOMALY   = 280.1327

EPHEMERIS_TYPE = 0
CLASSIFICATION_TYPE = U
NORAD_CAT_ID   = 67398
ELEMENT_SET_NO = 999
REV_AT_EPOCH   = 423
BSTAR          = .52663E-3
MEAN_MOTION_DOT = .10652E-3
MEAN_MOTION_DDOT = 0

CCSDS_OMM_VERS = 2.0
CREATION_DATE  = 
ORIGINATOR     = 

OBJECT_NAME    = TWILIGHT AN
OBJECT_ID      = 2026-004AN
CENTER_NAME    = EARTH
REF_FRAME      = TEME
TIME_SYSTEM    = UTC
MEAN_ELEMENT_THEORY = SGP/SGP4

EPOCH          = 2026-02-08T11:57:43.013664
MEAN_MOTION    = 15.18131682
ECCENTRICITY   = .0009486
INCLINATION    = 97.4559
RA_OF_ASC_NODE = 40.4520
ARG_OF_PERICENTER = 78.1492
MEAN_ANOMALY   = 282.0805

EPHEMERIS_TYPE = 0
CLASSIFICATION_TYPE = U
NORAD_CAT_ID   = 67399
ELEMENT_SET_NO = 999
REV_AT_EPOCH   = 423
BSTAR          = .30382E-3
MEAN_MOTION_DOT = .6141E-4
MEAN_MOTION_DDOT = 0

CCSDS_OMM_VERS = 2.0
CREATION_DATE  = 
ORIGINATOR     = 

OBJECT_NAME    = CONNECTA IOT-13
OBJECT_ID      = 2026-004AP
CENTER_NAME    = EARTH
REF_FRAME      = TEME
TIME_SYSTEM    = UTC
MEAN_ELEMENT_THEORY = SGP/SGP4

EPOCH          = 2026-02-08T11:50:31.917408
MEAN_MOTION    = 15.18130819
ECCENTRICITY   = .0011
INCLINATION    = 97.4557
RA_OF_ASC_NODE = 40.4577
ARG_OF_PERICENTER = 77.5306
MEAN_ANOMALY   = 282.7158

EPHEMERIS_TYPE = 0
CLASSIFICATION_TYPE = U
NORAD_CAT_ID   = 67400
ELEMENT_SET_NO = 999
REV_AT_EPOCH   = 423
BSTAR          = .18348E-3
MEAN_MOTION_DOT = .3682E-4
MEAN_MOTION_DDOT = 0

CCSDS_OMM_VERS = 2.0
CREATION_DATE  = 
ORIGINATOR     = 

OBJECT_NAME    = CONNECTA IOT-14
OBJECT_ID      = 2026-004AQ
CENTER_NAME    = EARTH
REF_FRAME      = TEME
TIME_SYSTEM    = UTC
MEAN_ELEMENT_THEORY = SGP/SGP4

EPOCH          = 2026-02-08T10:12:03.667680
MEAN_MOTION    = 15.18525485
ECCENTRICITY   = .0011393
INCLINATION    = 97.4503
RA_OF_ASC_NODE = 40.3757
ARG_OF_PERICENTER = 71.3652
MEAN_ANOMALY   = 288.8818

EPHEMERIS_TYPE = 0
CLASSIFICATION_TYPE = U
NORAD_CAT_ID   = 67401
ELEMENT_SET_NO = 999
REV_AT_EPOCH   = 422
BSTAR          = .63844E-3
MEAN_MOTION_DOT = .13145E-3
MEAN_MOTION_DDOT = 0

CCSDS_OMM_VERS = 2.0
CREATION_DATE  = 
ORIGINATOR     = 

OBJECT_NAME    = CONNECTA IOT-15
OBJECT_ID      = 2026-004AR
CENTER_NAME    = EARTH
REF_FRAME      = TEME
TIME_SYSTEM    = UTC
MEAN_ELEMENT_THEORY = SGP/SGP4

EPOCH          = 2026-02-08T10:54:37.535904
MEAN_MOTION    = 15.16660904
ECCENTRICITY   = .0004675
INCLINATION    = 97.4563
RA_OF_ASC_NODE = 40.3590
ARG_OF_PERICENTER = 65.7696
MEAN_ANOMALY   = 294.4026

EPHEMERIS_TYPE = 0
CLASSIFICATION_TYPE = U
NORAD_CAT_ID   = 67402
ELEMENT_SET_NO = 999
REV_AT_EPOCH   = 421
BSTAR          = .29409E-3
MEAN_MOTION_DOT = .5691E-4
MEAN_MOTION_DDOT = 0

CCSDS_OMM_VERS = 2.0
CREATION_DATE  = 
ORIGINATOR     = 

OBJECT_NAME    = SHIJIAN-29B (SJ-29B)
OBJECT_ID      = 2025-315C
CENTER_NAME    = EARTH
REF_FRAME      = TEME
TIME_SYSTEM    = UTC
MEAN_ELEMENT_THEORY = SGP/SGP4

EPOCH          = 2026-02-07T23:53:22.200576
MEAN_MOTION    = 1.00272340
ECCENTRICITY   = .00024872
INCLINATION    = 3.0705
RA_OF_ASC_NODE = 98.4902
ARG_OF_PERICENTER = 313.3077
MEAN_ANOMALY   = 157.7481

EPHEMERIS_TYPE = 0
CLASSIFICATION_TYPE = U
NORAD_CAT_ID   = 67403
ELEMENT_SET_NO = 999
REV_AT_EPOCH   = 39
BSTAR          = 0
MEAN_MOTION_DOT = -.63E-6
MEAN_MOTION_DDOT = 0

CCSDS_OMM_VERS = 2.0
CREATION_DATE  = 
ORIGINATOR     = 

OBJECT_NAME    = STARLINK-36484
OBJECT_ID      = 2026-005A
CENTER_NAME    = EARTH
REF_FRAME      = TEME
TIME_SYSTEM    = UTC
MEAN_ELEMENT_THEORY = SGP/SGP4

EPOCH          = 2026-02-08T10:40:54.670944
MEAN_MOTION    = 15.40721476
ECCENTRICITY   = .0001311
INCLINATION    = 43.0007
RA_OF_ASC_NODE = 45.7672
ARG_OF_PERICENTER = 255.9225
MEAN_ANOMALY   = 104.1486

EPHEMERIS_TYPE = 0
CLASSIFICATION_TYPE = U
NORAD_CAT_ID   = 67404
ELEMENT_SET_NO = 999
REV_AT_EPOCH   = 419
BSTAR          = .10111E-2
MEAN_MOTION_DOT = .42196E-3
MEAN_MOTION_DDOT = 0

CCSDS_OMM_VERS = 2.0
CREATION_DATE  = 
ORIGINATOR     = 

OBJECT_NAME    = STARLINK-36452
OBJECT_ID      = 2026-005B
CENTER_NAME    = EARTH
REF_FRAME      = TEME
TIME_SYSTEM    = UTC
MEAN_ELEMENT_THEORY = SGP/SGP4

EPOCH          = 2026-02-08T12:00:01.999296
MEAN_MOTION    = 15.45707614
ECCENTRICITY   = .0001227
INCLINATION    = 43.0007
RA_OF_ASC_NODE = 45.0253
ARG_OF_PERICENTER = 286.7744
MEAN_ANOMALY   = 194.9102

EPHEMERIS_TYPE = 0
CLASSIFICATION_TYPE = U
NORAD_CAT_ID   = 67405
ELEMENT_SET_NO = 999
REV_AT_EPOCH   = 544
BSTAR          = -.45231E-1
MEAN_MOTION_DOT = -.1996218E-1
MEAN_MOTION_DDOT = 0

