TWILIGHT AH             
1 67394U 26004AH  26039.49508004  .00009653  00000+0  47330-3 0  9993
2 67394  97.4480  40.4246 0010830  70.1183 290.1217 15.18281148  4235
TWILIGHT AJ             
1 67395U 26004AJ  26039.45761057  .00002867  00000+0  31977-3 0  9999
2 67395  97.8017  40.1606 0005203 176.8027 183.3224 14.87807809  4135
HAWK-13B                
1 67396U 26004AK  26039.50265898  .00002027  00000+0  10339-3 0  9995
2 67396  97.4512  40.4292 0008726  70.1306 290.0867 15.17847415  4236
CARBSAR                 
1 67397U 26004AL  26039.50475852  .00010996  00000+0  54506-3 0  9997
2 67397  97.4534  40.4345 0007880  74.4258 285.7845 15.17888735  4230
TWILIGHT AM             
1 67398U 26004AM  26039.50126679  .00010652  00000+0  52663-3 0  9999
2 67398  97.4570  40.4525 0008811  80.0901 280.1327 15.17982531  4237
TWILIGHT AN             
1 67399U 26004AN  26039.49841451  .00006141  00000+0  30382-3 0  9992
2 67399  97.4559  40.4520 0009486  78.1492 282.0805 15.18131682  4238
CONNECTA IOT-13         
1 67400U 26004AP  26039.49342497  .00003682  00000+0  18348-3 0  9996
2 67400  97.4557  40.4577 0011000  77.5306 282.7158 15.18130819  4232
CONNECTA IOT-14         
1 67401U 26004AQ  26039.42504245  .00013145  00000+0  63844-3 0  9997
2 67401  97.4503  40.3757 0011393  71.3652 288.8818 15.18525485  4220
CONNECTA IOT-15         
1 67402U 26004AR  26039.45460111  .00005691  00000+0  29409-3 0  9990
2 67402  97.4563  40.3590 0004675  65.7696 294.4026 15.16660904  4219
SHIJIAN-29B (SJ-29B)    
1 67403U 25315C   26038.99539584 -.00000063  00000+0  00000+0 0  9995
2 67403   3.0705  98.4902 0002487 313.3077 157.7481  1.00272340   398
STARLINK-36484          
1 67404U 26005A   26039.44507721  .00042196  00000+0  10111-2 0  9991
2 67404  43.0007  45.7672 0001311 255.9225 104.1486 15.40721476  4199
STARLINK-36452          
1 67405U 26005B   26039.50002314 -.01996218  00000+0 -45231-1 0  9993
2 67405  43.0007  45.0253 0001227 286.7744 194.9102 15.45707614  5446
